[{"name":"TDRS 3","l1":"1 19548U 88091B   26183.28777895 -.00000291  00000+0  00000+0 0  9997","l2":"2 19548  12.5903 340.8986 0037098 356.5894 357.5477  1.00268515125536","cat":"geostationary"},{"name":"FLTSATCOM 8 (USA 46)","l1":"1 20253U 89077A   26183.67730395 -.00000359  00000+0  00000+0 0  9999","l2":"2 20253  12.4170 351.0700 0003710  63.0807 236.1342  1.00269504260714","cat":"geostationary"},{"name":"SKYNET 4C","l1":"1 20776U 90079A   26183.42199126 -.00000024  00000+0  00000+0 0  9996","l2":"2 20776  13.3333 349.7146 0003382 127.1293 224.5561  0.98576857   184","cat":"geostationary"},{"name":"TDRS 5","l1":"1 21639U 91054B   26183.69188977  .00000091  00000+0  00000+0 0  9993","l2":"2 21639  14.0689 353.6604 0006574 258.4573 110.0432  1.00269588127879","cat":"geostationary"},{"name":"TDRS 6","l1":"1 22314U 93003B   26183.38100162 -.00000290  00000+0  00000+0 0  9998","l2":"2 22314  14.1830 356.9453 0008767 180.2248 194.3787  1.00265807122563","cat":"geostationary"},{"name":"UFO 2 (USA 95)","l1":"1 22787U 93056A   26183.65955644  .00000132  00000+0  00000+0 0  9997","l2":"2 22787  11.9000   3.4689 0004203   9.0561 174.2772  1.00276047118703","cat":"geostationary"},{"name":"USA 99 (MILSTAR-1 1)","l1":"1 22988U 94009A   26182.99917752 -.00000080  00000+0  00000+0 0  9996","l2":"2 22988  17.6475  27.5506 0001048 181.0184 353.5539  0.98721676 33096","cat":"geostationary"},{"name":"UFO 4 (USA 108)","l1":"1 23467U 95003A   26183.33152933 -.00000014  00000+0  00000+0 0  9992","l2":"2 23467   9.6796  13.0828 0002717  78.9921 119.8805  1.00277666115101","cat":"geostationary"},{"name":"TDRS 7","l1":"1 23613U 95035B   26183.73975619 -.00000233  00000+0  00000+0 0  9991","l2":"2 23613  13.3706 348.0825 0011705  83.0502 205.0712  1.00277191113403","cat":"geostationary"},{"name":"USA 115 (MILSTAR-1 2)","l1":"1 23712U 95060A   26182.99448620 -.00000197  00000+0  00000+0 0  9992","l2":"2 23712  14.0771   3.6326 0006469 115.7107  68.6814  1.00273395 33036","cat":"geostationary"},{"name":"INMARSAT 3-F1","l1":"1 23839U 96020A   26183.63184660 -.00000011  00000+0  00000+0 0  9997","l2":"2 23839  10.6324  46.4911 0003995  73.2696 276.8546  0.99978213110409","cat":"geostationary"},{"name":"INMARSAT 3-F2","l1":"1 24307U 96053A   26183.77110252 -.00000337  00000+0  00000+0 0  9996","l2":"2 24307   9.8913  53.7767 0006426  43.5696 235.2039  0.99997745109074","cat":"geostationary"},{"name":"INMARSAT 3-F3","l1":"1 24674U 96070A   26182.80384397  .00000114  00000+0  00000+0 0  9990","l2":"2 24674  10.3490  49.5123 0003301  56.2632 130.9093  0.99989473108054","cat":"geostationary"},{"name":"USA 134","l1":"1 25019U 97065A   26183.56040631 -.00000057  00000+0  00000+0 0  9990","l2":"2 25019  12.8012  21.6033 0002609 347.0523   1.2546  1.00271465 33100","cat":"geostationary"},{"name":"INMARSAT 3-F5","l1":"1 25153U 98006B   26183.07282656 -.00000286  00000+0  00000+0 0  9990","l2":"2 25153   9.7243  53.1097 0004234  46.9125 152.3411  1.00270745104040","cat":"geostationary"},{"name":"ABS-6","l1":"1 25924U 99053A   26183.77257728 -.00000109  00000+0  00000+0 0  9992","l2":"2 25924   0.0419 277.0942 0003036 162.7972 278.0369  1.00271901 97995","cat":"geostationary"},{"name":"UFO 10 (USA 146)","l1":"1 25967U 99063A   26180.37000920 -.00000185  00000+0  00000+0 0  9997","l2":"2 25967   9.8449  27.1462 0001552  73.9701 286.4977  1.00268568 97462","cat":"geostationary"},{"name":"ASIASTAR","l1":"1 26107U 00016A   26183.75451395 -.00000327  00000+0  00000+0 0  9993","l2":"2 26107   9.1635  57.9857 0004493  44.1099 195.3202  1.00269567 96070","cat":"geostationary"},{"name":"USA 149 (DSP 20)","l1":"1 26356U 00024A   26183.69249645  .00000102  00000+0  00000+0 0  9994","l2":"2 26356  13.1813  11.7375 0001311 315.1660  38.0884  1.00282250 33066","cat":"geostationary"},{"name":"TDRS 8","l1":"1 26388U 00034A   26183.80181882 -.00000190  00000+0  00000+0 0  9999","l2":"2 26388  12.7077  31.1882 0004539  27.2019 235.8936  1.00274710 95336","cat":"geostationary"},{"name":"NSS-11","l1":"1 26554U 00059A   26183.68868308  .00000034  00000+0  00000+0 0  9998","l2":"2 26554   2.1642  81.2172 0003116  18.3511 245.0768  1.00272185 41441","cat":"geostationary"},{"name":"USA 153","l1":"1 26575U 00065A   26181.47055027 -.00000323  00000+0  00000+0 0  9991","l2":"2 26575  11.6465  35.3089 0003035  54.5579 132.3965  1.00267599 33064","cat":"geostationary"},{"name":"AMC-6","l1":"1 26580U 00067A   26183.69838979  .00000099  00000+0  00000+0 0  9999","l2":"2 26580   0.1894  83.4571 0004099  29.1276 284.5505  1.00273335 94042","cat":"geostationary"},{"name":"USA 157 (MILSTAR-2 2)","l1":"1 26715U 01009A   26183.69544311  .00000116  00000+0  00000+0 0  9990","l2":"2 26715  11.5586  19.6630 0040007 178.2538 183.1077  1.00269786 33102","cat":"geostationary"},{"name":"INTELSAT 902 (IS-902)","l1":"1 26900U 01039A   26183.07360656 -.00000276  00000+0  00000+0 0  9997","l2":"2 26900   6.1537  71.6012 0004298  27.5125 157.3906  1.00272101 90849","cat":"geostationary"},{"name":"USA 164 (MILSTAR-2 3)","l1":"1 27168U 02001A   26183.74102522  .00000104  00000+0  00000+0 0  9993","l2":"2 27168  11.1969  21.8076 0099119   8.9359 175.7196  1.00273186 33112","cat":"geostationary"},{"name":"INTELSAT 904 (IS-904)","l1":"1 27380U 02007A   26183.43377800 -.00000219  00000+0  00000+0 0  9992","l2":"2 27380   6.9556  69.0021 0006275  16.0550 320.0982  1.00271556 51915","cat":"geostationary"},{"name":"DIRECTV 5 (TEMPO 1)","l1":"1 27426U 02023A   26183.70332983 -.00000049  00000+0  00000+0 0  9995","l2":"2 27426   4.9150  75.1209 0003529  35.7481 312.9629  1.00271722 88272","cat":"geostationary"},{"name":"INTELSAT 905 (IS-905)","l1":"1 27438U 02027A   26183.48169733  .00000101  00000+0  00000+0 0  9996","l2":"2 27438   6.7895  69.6168 0004011  32.6759 214.4348  1.00272483 51510","cat":"geostationary"},{"name":"GALAXY 3C (G-3C)","l1":"1 27445U 02030A   26183.56378632 -.00000144  00000+0  00000+0 0  9995","l2":"2 27445   3.7702  77.7817 0001915  28.8727 282.0852  1.00272065 46640","cat":"geostationary"},{"name":"INTELSAT 906 (IS-906)","l1":"1 27513U 02041A   26183.77846751  .00000021  00000+0  00000+0 0  9991","l2":"2 27513   5.8411  72.7293 0004086  10.5963 181.8750  1.00270573 87180","cat":"geostationary"}]